[{"OBJECT_NAME":"IRIDE FM1","OBJECT_ID":"2025-276AF","EPOCH":"2026-03-09T18:13:05.170368","MEAN_MOTION":15.19690008,"ECCENTRICITY":8.247e-5,"INCLINATION":97.4265,"RA_OF_ASC_NODE":144.1318,"ARG_OF_PERICENTER":49.2046,"MEAN_ANOMALY":310.9261,"EPHEMERIS_TYPE":0,"CLASSIFICATION_TYPE":"U","NORAD_CAT_ID":66695,"ELEMENT_SET_NO":999,"REV_AT_EPOCH":1533,"BSTAR":0.00038663659,"MEAN_MOTION_DOT":8.188e-5,"MEAN_MOTION_DDOT":0},{"OBJECT_NAME":"FENGYUN 1C DEB","OBJECT_ID":"1999-025DCC","EPOCH":"2026-03-06T20:17:15.373248","MEAN_MOTION":14.96028569,"ECCENTRICITY":0.01060199,"INCLINATION":97.3493,"RA_OF_ASC_NODE":89.8611,"ARG_OF_PERICENTER":314.0813,"MEAN_ANOMALY":45.1717,"EPHEMERIS_TYPE":0,"CLASSIFICATION_TYPE":"U","NORAD_CAT_ID":32464,"ELEMENT_SET_NO":999,"REV_AT_EPOCH":62048,"BSTAR":0.0018930434,"MEAN_MOTION_DOT":0.00023806,"MEAN_MOTION_DDOT":0}]
